{
  "type": "FeatureCollection",
  "features": [
    {
      "type": "Feature",
      "properties": {
        "norad_id": 28890,
        "name": "BEIJING 1",
        "group": "dmc",
        "lat": -44.452125710861615,
        "lon": 118.14896005519813,
        "alt_km": 699.1274483050647,
        "timestamp": "2025-12-08T10:52:02.615982+00:00",
        "meta_object_name": "BEIJING 1",
        "meta_object_id": "2005-043A",
        "meta_epoch": "2025-12-07T21:56:42.554688",
        "meta_mean_motion": 14.63358858,
        "meta_eccentricity": 0.00151206,
        "meta_inclination": 98.2657,
        "meta_ra_of_asc_node": 109.4102,
        "meta_arg_of_pericenter": 155.9756,
        "meta_mean_anomaly": 204.2154,
        "meta_ephemeris_type": 0,
        "meta_classification_type": "U",
        "meta_norad_cat_id": 28890,
        "meta_element_set_no": 999,
        "meta_rev_at_epoch": 7267,
        "meta_bstar": 0.00014661008,
        "meta_mean_motion_dot": 7.1e-06,
        "meta_mean_motion_ddot": 0,
        "tle_line1": "1 28890U 05043A   25341.91438142  .00000710  00000+0  14661-3 0  9994",
        "tle_line2": "2 28890  98.2657 109.4102 0015120 155.9756 204.2154 14.63358858 72671"
      },
      "geometry": {
        "type": "Point",
        "coordinates": [
          118.14896005519813,
          -44.452125710861615
        ]
      }
    },
    {
      "type": "Feature",
      "properties": {
        "norad_id": 33320,
        "name": "HUANJING 1A (HJ-1A)",
        "group": "dmc",
        "lat": 33.549253985720476,
        "lon": -34.18594162457595,
        "alt_km": 602.7636594900005,
        "timestamp": "2025-12-08T10:52:02.616007+00:00",
        "meta_object_name": "HUANJING 1A (HJ-1A)",
        "meta_object_id": "2008-041A",
        "meta_epoch": "2025-12-07T23:22:59.272896",
        "meta_mean_motion": 14.83370889,
        "meta_eccentricity": 0.00204187,
        "meta_inclination": 97.6538,
        "meta_ra_of_asc_node": 330.4716,
        "meta_arg_of_pericenter": 49.4553,
        "meta_mean_anomaly": 310.8435,
        "meta_ephemeris_type": 0,
        "meta_classification_type": "U",
        "meta_norad_cat_id": 33320,
        "meta_element_set_no": 999,
        "meta_rev_at_epoch": 93005,
        "meta_bstar": 0.00029750269,
        "meta_mean_motion_dot": 2.397e-05,
        "meta_mean_motion_ddot": 0,
        "tle_line1": "1 33320U 08041A   25341.97429714  .00002397  00000+0  29750-3 0  9998",
        "tle_line2": "2 33320  97.6538 330.4716 0020418  49.4553 310.8435 14.83370889930052"
      },
      "geometry": {
        "type": "Point",
        "coordinates": [
          -34.18594162457595,
          33.549253985720476
        ]
      }
    },
    {
      "type": "Feature",
      "properties": {
        "norad_id": 33321,
        "name": "HUANJING 1B (HJ-1B)",
        "group": "dmc",
        "lat": -80.3006379739313,
        "lon": 102.89010780108711,
        "alt_km": 654.4949470549536,
        "timestamp": "2025-12-08T10:52:02.616021+00:00",
        "meta_object_name": "HUANJING 1B (HJ-1B)",
        "meta_object_id": "2008-041B",
        "meta_epoch": "2025-12-07T22:20:44.038464",
        "meta_mean_motion": 14.82801828,
        "meta_eccentricity": 0.00382368,
        "meta_inclination": 97.6397,
        "meta_ra_of_asc_node": 334.1397,
        "meta_arg_of_pericenter": 91.0339,
        "meta_mean_anomaly": 269.5256,
        "meta_ephemeris_type": 0,
        "meta_classification_type": "U",
        "meta_norad_cat_id": 33321,
        "meta_element_set_no": 999,
        "meta_rev_at_epoch": 93006,
        "meta_bstar": 0.00024834093,
        "meta_mean_motion_dot": 1.983e-05,
        "meta_mean_motion_ddot": 0,
        "tle_line1": "1 33321U 08041B   25341.93106526  .00001983  00000+0  24834-3 0  9996",
        "tle_line2": "2 33321  97.6397 334.1397 0038236  91.0339 269.5256 14.82801828930067"
      },
      "geometry": {
        "type": "Point",
        "coordinates": [
          102.89010780108711,
          -80.3006379739313
        ]
      }
    },
    {
      "type": "Feature",
      "properties": {
        "norad_id": 33446,
        "name": "YAOGAN-4",
        "group": "dmc",
        "lat": 2.264603077940711,
        "lon": 92.90903816440584,
        "alt_km": 632.8987428886676,
        "timestamp": "2025-12-08T10:52:02.616032+00:00",
        "meta_object_name": "YAOGAN-4",
        "meta_object_id": "2008-061A",
        "meta_epoch": "2025-12-07T19:29:28.070016",
        "meta_mean_motion": 14.82658842,
        "meta_eccentricity": 0.00140158,
        "meta_inclination": 97.9175,
        "meta_ra_of_asc_node": 271.9595,
        "meta_arg_of_pericenter": 340.0883,
        "meta_mean_anomaly": 19.9782,
        "meta_ephemeris_type": 0,
        "meta_classification_type": "U",
        "meta_norad_cat_id": 33446,
        "meta_element_set_no": 999,
        "meta_rev_at_epoch": 91730,
        "meta_bstar": 0.00033913084,
        "meta_mean_motion_dot": 2.684e-05,
        "meta_mean_motion_ddot": 0,
        "tle_line1": "1 33446U 08061A   25341.81213044  .00002684  00000+0  33913-3 0  9994",
        "tle_line2": "2 33446  97.9175 271.9595 0014015 340.0883  19.9782 14.82658842917309"
      },
      "geometry": {
        "type": "Point",
        "coordinates": [
          92.90903816440584,
          2.264603077940711
        ]
      }
    },
    {
      "type": "Feature",
      "properties": {
        "norad_id": 35681,
        "name": "DEIMOS-1",
        "group": "dmc",
        "lat": 65.35878437971911,
        "lon": 126.06576645071716,
        "alt_km": 637.2034344377416,
        "timestamp": "2025-12-08T10:52:02.616043+00:00",
        "meta_object_name": "DEIMOS-1",
        "meta_object_id": "2009-041A",
        "meta_epoch": "2025-12-07T23:10:11.004960",
        "meta_mean_motion": 14.74940888,
        "meta_eccentricity": 0.00027008,
        "meta_inclination": 97.7153,
        "meta_ra_of_asc_node": 142.7914,
        "meta_arg_of_pericenter": 89.5996,
        "meta_mean_anomaly": 270.5523,
        "meta_ephemeris_type": 0,
        "meta_classification_type": "U",
        "meta_norad_cat_id": 35681,
        "meta_element_set_no": 999,
        "meta_rev_at_epoch": 87869,
        "meta_bstar": 0.00018004868,
        "meta_mean_motion_dot": 1.162e-05,
        "meta_mean_motion_ddot": 0,
        "tle_line1": "1 35681U 09041A   25341.96540515  .00001162  00000+0  18005-3 0  9993",
        "tle_line2": "2 35681  97.7153 142.7914 0002700  89.5996 270.5523 14.74940888878695"
      },
      "geometry": {
        "type": "Point",
        "coordinates": [
          126.06576645071716,
          65.35878437971911
        ]
      }
    },
    {
      "type": "Feature",
      "properties": {
        "norad_id": 35683,
        "name": "UK-DMC 2",
        "group": "dmc",
        "lat": 69.74606639695061,
        "lon": 95.50203511724827,
        "alt_km": 635.6348384180537,
        "timestamp": "2025-12-08T10:52:02.616054+00:00",
        "meta_object_name": "UK-DMC 2",
        "meta_object_id": "2009-041C",
        "meta_epoch": "2025-12-07T23:09:12.729024",
        "meta_mean_motion": 14.7560496,
        "meta_eccentricity": 0.00013549,
        "meta_inclination": 97.8564,
        "meta_ra_of_asc_node": 117.0027,
        "meta_arg_of_pericenter": 101.7124,
        "meta_mean_anomaly": 258.4238,
        "meta_ephemeris_type": 0,
        "meta_classification_type": "U",
        "meta_norad_cat_id": 35683,
        "meta_element_set_no": 999,
        "meta_rev_at_epoch": 87836,
        "meta_bstar": 0.00025668705,
        "meta_mean_motion_dot": 1.702e-05,
        "meta_mean_motion_ddot": 0,
        "tle_line1": "1 35683U 09041C   25341.96473066  .00001702  00000+0  25669-3 0  9995",
        "tle_line2": "2 35683  97.8564 117.0027 0001354 101.7124 258.4238 14.75604960878369"
      },
      "geometry": {
        "type": "Point",
        "coordinates": [
          95.50203511724827,
          69.74606639695061
        ]
      }
    },
    {
      "type": "Feature",
      "properties": {
        "norad_id": 40715,
        "name": "DMC3-FM1",
        "group": "dmc",
        "lat": -30.7857713443952,
        "lon": -145.59324961670546,
        "alt_km": 614.861922792209,
        "timestamp": "2025-12-08T10:52:02.616065+00:00",
        "meta_object_name": "DMC3-FM1",
        "meta_object_id": "2015-032A",
        "meta_epoch": "2025-12-07T22:04:24.340224",
        "meta_mean_motion": 14.85426953,
        "meta_eccentricity": 0.00049449,
        "meta_inclination": 97.6703,
        "meta_ra_of_asc_node": 209.2878,
        "meta_arg_of_pericenter": 338.9638,
        "meta_mean_anomaly": 21.1374,
        "meta_ephemeris_type": 0,
        "meta_classification_type": "U",
        "meta_norad_cat_id": 40715,
        "meta_element_set_no": 999,
        "meta_rev_at_epoch": 56151,
        "meta_bstar": 0.00015658523,
        "meta_mean_motion_dot": 1.298e-05,
        "meta_mean_motion_ddot": 0,
        "tle_line1": "1 40715U 15032A   25341.91972616  .00001298  00000+0  15659-3 0  9992",
        "tle_line2": "2 40715  97.6703 209.2878 0004944 338.9638  21.1374 14.85426953561511"
      },
      "geometry": {
        "type": "Point",
        "coordinates": [
          -145.59324961670546,
          -30.7857713443952
        ]
      }
    },
    {
      "type": "Feature",
      "properties": {
        "norad_id": 40716,
        "name": "DMC3-FM2",
        "group": "dmc",
        "lat": -28.559242979023516,
        "lon": 27.032365330396768,
        "alt_km": 620.7797127471586,
        "timestamp": "2025-12-08T10:52:02.616075+00:00",
        "meta_object_name": "DMC3-FM2",
        "meta_object_id": "2015-032B",
        "meta_epoch": "2025-12-07T20:59:48.374880",
        "meta_mean_motion": 14.8542921,
        "meta_eccentricity": 0.00055836,
        "meta_inclination": 97.676,
        "meta_ra_of_asc_node": 210.685,
        "meta_arg_of_pericenter": 343.4534,
        "meta_mean_anomaly": 16.6498,
        "meta_ephemeris_type": 0,
        "meta_classification_type": "U",
        "meta_norad_cat_id": 40716,
        "meta_element_set_no": 999,
        "meta_rev_at_epoch": 56150,
        "meta_bstar": 0.00018100968,
        "meta_mean_motion_dot": 1.508e-05,
        "meta_mean_motion_ddot": 0,
        "tle_line1": "1 40716U 15032B   25341.87486545  .00001508  00000+0  18101-3 0  9998",
        "tle_line2": "2 40716  97.6760 210.6850 0005583 343.4534  16.6498 14.85429210561501"
      },
      "geometry": {
        "type": "Point",
        "coordinates": [
          27.032365330396768,
          -28.559242979023516
        ]
      }
    },
    {
      "type": "Feature",
      "properties": {
        "norad_id": 40717,
        "name": "DMC3-FM3",
        "group": "dmc",
        "lat": 81.5863153674175,
        "lon": 98.72435557666707,
        "alt_km": 605.9845964795068,
        "timestamp": "2025-12-08T10:52:02.616085+00:00",
        "meta_object_name": "DMC3-FM3",
        "meta_object_id": "2015-032C",
        "meta_epoch": "2025-12-07T21:30:53.861472",
        "meta_mean_motion": 14.85419324,
        "meta_eccentricity": 0.00049406,
        "meta_inclination": 97.6815,
        "meta_ra_of_asc_node": 212.3356,
        "meta_arg_of_pericenter": 345.5649,
        "meta_mean_anomaly": 14.5425,
        "meta_ephemeris_type": 0,
        "meta_classification_type": "U",
        "meta_norad_cat_id": 40717,
        "meta_element_set_no": 999,
        "meta_rev_at_epoch": 56151,
        "meta_bstar": 0.00013331774,
        "meta_mean_motion_dot": 1.097e-05,
        "meta_mean_motion_ddot": 0,
        "tle_line1": "1 40717U 15032C   25341.89645673  .00001097  00000+0  13332-3 0  9994",
        "tle_line2": "2 40717  97.6815 212.3356 0004940 345.5649  14.5425 14.85419324561512"
      },
      "geometry": {
        "type": "Point",
        "coordinates": [
          98.72435557666707,
          81.5863153674175
        ]
      }
    }
  ]
}